FLOCK 3P-75             
1 41979U 17008AH  17325.91987656  .00002315  00000-0  99975-4 0  9999
2 41979  97.4799  26.8723 0008562  14.7707 345.3778 15.23499175 42539
FLOCK 3P-70             
1 41980U 17008AJ  17325.72110014  .00002336  00000-0  10080-3 0  9998
2 41980  97.4804  26.6806 0008544  14.6307 345.5176 15.23515503 42340
FLOCK 3P-73             
1 41981U 17008AK  17325.92689862  .00003630  00000-0  15497-3 0  9998
2 41981  97.4803  26.8672 0008751  14.2947 345.8536 15.23511981 42517
FLOCK 3P-88             
1 41982U 17008AL  17325.78443658  .00005903  00000-0  24992-3 0  9999
2 41982  97.4798  26.7401 0008582  14.9879 345.1610 15.23530804 41467
FLOCK 3P-85             
1 41983U 17008AM  17325.70464927  .00004336  00000-0  18420-3 0  9992
2 41983  97.4801  26.7006 0008600  18.9712 341.1844 15.23564916 42350
FLOCK 3P-79             
1 41984U 17008AN  17326.16550178  .00005296  00000-0  22435-3 0  9995
2 41984  97.4798  27.1566 0008250  17.3959 342.7559 15.23563143 42428
FLOCK 3P-86             
1 41985U 17008AP  17325.90377256  .00003049  00000-0  13049-3 0  9996
2 41985  97.4800  26.8885 0008217  17.4714 342.6804 15.23553769 42375
FLOCK 3P-36             
1 41986U 17008AQ  17325.84068608  .00006247  00000-0  26428-3 0  9996
2 41986  97.4783  26.7533 0007910  15.9793 344.1692 15.23536137 41858
FLOCK 3P-30             
1 41987U 17008AR  17325.89708724  .00004992  00000-0  21161-3 0  9996
2 41987  97.4780  26.8318 0007884  17.4419 342.7087 15.23572054 42334
FLOCK 3P-34             
1 41988U 17008AS  17326.17252067  .00005446  00000-0  23063-3 0  9991
2 41988  97.4778  27.0618 0007820  12.2608 347.8817 15.23563365 41905
FLOCK 3P-35             
1 41989U 17008AT  17325.71500752  .00004000  00000-0  17037-3 0  9997
2 41989  97.4777  26.5996 0008060  13.8718 346.2738 15.23530972 41839
FLOCK 3P-33             
1 41990U 17008AU  17325.84178391  .00005762  00000-0  24395-3 0  9994
2 41990  97.4781  26.7420 0007705  14.7505 345.3955 15.23546382 41854
LEMUR-2-SATCHMO         
1 41991U 17008AV  17325.91010744  .00002250  00000-0  99275-4 0  9999
2 41991  97.4772  26.6410 0008097  16.9764 343.1742 15.22788871 41859
LEMUR-2-MIA-GRACE       
1 41992U 17008AW  17325.67436838  .00003457  00000-0  14910-3 0  9991
2 41992  97.4778  26.5057 0008043  17.9353 342.2166 15.23200596 41829
LEMUR-2-SMITA-SHARAD    
1 41993U 17008AX  17326.08794581  .00002363  00000-0  10366-3 0  9996
2 41993  97.4771  26.8650 0008020  16.2214 343.9278 15.22948724 41887
LEMUR-2-SPIRE-MINIONS   
1 41994U 17008AY  17325.68196665  .00003524  00000-0  15212-3 0  9996
2 41994  97.4773  26.4883 0008041  17.0010 343.1494 15.23160415 41820
LEMUR-2-RDEATON         
1 41995U 17008AZ  17325.75334081  .00002657  00000-0  11592-3 0  9994
2 41995  97.4773  26.5495 0009491  28.6296 331.5460 15.23002987 42515
LEMUR-2-NOGUECORREIG    
1 41996U 17008BA  17325.93117206  .00003659  00000-0  15763-3 0  9990
2 41996  97.4779  26.7773 0009344  28.6475 331.5273 15.23189737 41766
LEMUR-2-JOBANPUTRA      
1 41997U 17008BB  17325.71508989  .00002328  00000-0  10104-3 0  9995
2 41997  97.4783  26.6076 0009346  29.1376 331.0381 15.23315179 41828
LEMUR-2-TACHIKOMA       
1 41998U 17008BC  17326.21858200  .00002420  00000-0  10619-3 0  9990
2 41998  97.4772  26.9983 0009390  27.5346 332.6386 15.22904743 41827
BGUSAT                  
1 41999U 17008BD  17325.89298690  .00004207  00000-0  17853-3 0  9997
2 41999  97.4784  26.8444 0009198  29.8921 330.2839 15.23616612 41858
DIDO-2                  
1 42000U 17008BE  17325.90319665  .00001705  00000-0  76105-4 0  9995
2 42000  97.4771  26.6491 0009456  29.0151 331.1609 15.22729370 41852
FLOCK 3P-49             
1 42001U 17008BF  17325.76225028  .00002677  00000-0  11494-3 0  9997
2 42001  97.4781  26.6984 0008908  31.1934 328.9830 15.23548411 42368
FLOCK 3P-67             
1 42002U 17008BG  17325.89722362  .00004387  00000-0  18585-3 0  9993
2 42002  97.4776  26.8188 0008758  29.8911 330.2825 15.23654892 42544
FLOCK 3P-68             
1 42003U 17008BH  17325.90137312  .00003390  00000-0  14470-3 0  9993
2 42003  97.4777  26.8086 0008909  28.7154 331.4572 15.23562515 42180
FLOCK 3P-41             
1 42004U 17008BJ  17326.08600089  .00004585  00000-0  19468-3 0  9999
2 42004  97.4777  27.0153 0008711  30.2503 329.9235 15.23555033 42406
FLOCK 3P-45             
1 42005U 17008BK  17326.15552401  .00004752  00000-0  20103-3 0  9996
2 42005  97.4780  27.0856 0008709  29.6655 330.5074 15.23657358 42578
FLOCK 3P-48             
1 42006U 17008BL  17325.62943124  .00004004  00000-0  17051-3 0  9992
2 42006  97.4783  26.5688 0008720  32.6423 327.5351 15.23534227 42280
FLOCK 3P-43             
1 42007U 17008BM  17326.21886867  .00004848  00000-0  20568-3 0  9992
2 42007  97.4778  27.1496 0008532  30.7375 329.4360 15.23550651 42588
FLOCK 3P-42             
1 42008U 17008BN  17326.08666419  .00003554  00000-0  15170-3 0  9993
2 42008  97.4778  27.0137 0008581  31.0031 329.1710 15.23531036 42499
FLOCK 3P-61             
1 42009U 17008BP  17325.69115396  .00005233  00000-0  22190-3 0  9999
2 42009  97.4779  26.6287 0008634  34.3508 325.8285 15.23531161 42484
FLOCK 3P-40             
1 42010U 17008BQ  17325.94729955  .00001906  00000-0  82793-4 0  9990
2 42010  97.4775  26.8792 0008580  33.8923 326.2860 15.23519012 41787
FLOCK 3P-16             
1 42011U 17008BR  17326.13217533  .00002545  00000-0  10962-3 0  9995
2 42011  97.4772  27.0952 0008247  34.5559 325.6213 15.23493927 41757
FLOCK 3P-14             
1 42012U 17008BS  17326.00415158  .00003651  00000-0  15546-3 0  9997
2 42012  97.4781  26.9731 0008441  36.7432 323.4382 15.23594803 42356
FLOCK 3P-53             
1 42013U 17008BT  17325.81037941  .00002251  00000-0  97037-4 0  9997
2 42013  97.4772  26.7439 0008321  35.5633 324.6157 15.23594035 42324
FLOCK 3P-54             
1 42014U 17008BU  17326.07296375  .00004471  00000-0  19023-3 0  9999
2 42014  97.4775  27.0211 0008277  35.7414 324.4375 15.23501730 42532
PEASSS                  
1 42015U 17008BV  17325.91948700  .00002351  00000-0  10168-3 0  9994
2 42015  97.4762  26.8961 0007531  39.4357 320.7426 15.23441058 42359
AL-FARABI 1             
1 42016U 17008BW  17326.22184498  .00003000  00000-0  12783-3 0  9993
2 42016  97.4766  27.2688 0007374  39.2317 320.9453 15.23719375 42525
NAYIF-1 (EO-88)         
1 42017U 17008BX  17326.02198455  .00002931  00000-0  12491-3 0  9998
2 42017  97.4765  27.0739 0007380  40.0215 320.1565 15.23736458 42510
FLOCK 3P-23             
1 42018U 17008BY  17325.87459519  .00002066  00000-0  89576-4 0  9990
2 42018  97.4773  26.6642 0008748   9.4734 350.6667 15.23477535 41307
FLOCK 3P-76             
1 42019U 17008BZ  17325.77895573  .00003838  00000-0  16350-3 0  9991
2 42019  97.4803  26.7631 0008649  16.5552 343.5965 15.23547344 42352
FLOCK 3P-69             
1 42020U 17008CA  17325.84327875  .00005154  00000-0  21853-3 0  9993
2 42020  97.4802  26.8298 0008457  15.4030 344.7463 15.23542616 41250
FLOCK 3P-84             
1 42021U 17008CB  17325.72067506  .00003663  00000-0  15643-3 0  9996
2 42021  97.4799  26.6715 0008858  15.0899 345.0600 15.23487258 42351
FLOCK 3P-59             
1 42022U 17008CC  17325.72224076  .00005291  00000-0  22401-3 0  9993
2 42022  97.4778  26.5935 0008229  16.3346 343.8154 15.23583583 41374
FLOCK 3P-32             
1 42023U 17008CD  17325.92165992  .00004180  00000-0  17790-3 0  9998
2 42023  97.4779  26.7892 0008126  11.8442 348.2984 15.23533072 42541
FLOCK 3P-71             
1 42024U 17008CE  17325.67577397  .00005925  00000-0  25143-3 0  9996
2 42024  97.4806  26.6001 0008716  16.1673 343.9840 15.23446219 41372
FLOCK 3P-77             
1 42025U 17008CF  17326.17409785  .00003534  00000-0  15081-3 0  9992
2 42025  97.4800  27.1446 0008444  15.5258 344.6236 15.23539383 42425
FLOCK 3P-80             
1 42026U 17008CG  17325.89587044  .00003495  00000-0  14909-3 0  9990
2 42026  97.4799  26.8991 0008122  17.5255 342.6260 15.23567941 40521
FLOCK 3P-66             
1 42027U 17008CH  17325.90035307  .00005607  00000-0  23721-3 0  9992
2 42027  97.4781  26.8205 0008897  27.8372 332.3340 15.23570964 42496
FLOCK 3P-65             
1 42028U 17008CJ  17325.76720754  .00003474  00000-0  14822-3 0  9996
2 42028  97.4782  26.6915 0008800  28.7944 331.3777 15.23555554 42371
FLOCK 3P-50             
1 42029U 17008CK  17326.09206437  .00006022  00000-0  25443-3 0  9994
2 42029  97.4781  27.0309 0008682  30.2606 329.9131 15.23587724 41745
FLOCK 3P-52             
1 42030U 17008CL  17326.09337143  .00003714  00000-0  15817-3 0  9994
2 42030  97.4779  27.0172 0008705  29.2358 330.9365 15.23573072 42518
FLOCK 3P-46             
1 42031U 17008CM  17326.08831713  .00001961  00000-0  85042-4 0  9996
2 42031  97.4779  27.0163 0008720  29.9727 330.2007 15.23540175 42540
FLOCK 3P-47             
1 42032U 17008CN  17325.63023297  .00002190  00000-0  94582-4 0  9991
2 42032  97.4780  26.5550 0008746  32.0968 328.0800 15.23544744 42325
FLOCK 3P-44             
1 42033U 17008CP  17326.08304691  .00002306  00000-0  99506-4 0  9992
2 42033  97.4779  27.0304 0008708  33.4667 326.7119 15.23532042 41141
FLOCK 3P-64             
1 42034U 17008CQ  17325.68889023  .00003907  00000-0  16653-3 0  9994
2 42034  97.4778  26.6235 0008660  33.7431 326.4356 15.23515707 42508
FLOCK 3P-63             
1 42035U 17008CR  17326.08048075  .00002466  00000-0  10614-3 0  9994
2 42035  97.4773  27.0147 0008567  33.0295 327.1475 15.23541134 40532
FLOCK 3P-62             
1 42036U 17008CS  17325.67115693  .00005319  00000-0  22417-3 0  9994
2 42036  97.4778  26.6484 0008678  35.6094 324.5721 15.23730698 41671
FLOCK 3P-38             
1 42037U 17008CT  17325.88199442  .00003807  00000-0  16228-3 0  9995
2 42037  97.4776  26.8220 0008358  34.4041 325.7735 15.23532251 42487
